start=new Date('2023-03-26T00:00:00.000Z').valueOf();
sats=[{"BSTAR":"0.00308440000000","MEAN_ELEMENT_THEORY":"SGP4","TIME_SYSTEM":"UTC","SITE":"AFETR","REV_AT_EPOCH":"12067","CENTER_NAME":"EARTH","MEAN_MOTION":"15.06272710","CLASSIFICATION_TYPE":"U","PERIAPSIS":"546.662","RCS_SIZE":"LARGE","FILE":"3871104","COUNTRY_CODE":"US","SEMIMAJOR_AXIS":"6925.739","NORAD_CAT_ID":"47406","MEAN_ANOMALY":"281.0912","OBJECT_NAME":"STARLINK-2133","EPHEMERIS_TYPE":"0","TLE_LINE2":"2 47406  53.0533 200.1557 0001360  79.0230 281.0912 15.06272710120673","LAUNCH_DATE":"2021-01-20","MEAN_MOTION_DDOT":"0.0000000000000","EPOCH":"2023-03-25T15:18:17.190144","ARG_OF_PERICENTER":"79.0230","DECAY_DATE":null,"OBJECT_ID":"2021-005BK","ELEMENT_SET_NO":"999","OBJECT_TYPE":"PAYLOAD","MEAN_MOTION_DOT":"0.00045802","APOAPSIS":"548.546","PERIOD":"95.600","ECCENTRICITY":"0.00013600","REF_FRAME":"TEME","INCLINATION":"53.0533","RA_OF_ASC_NODE":"200.1557","TLE_LINE1":"1 47406U 21005BK  23084.63769896  .00045802  00000-0  30844-2 0  9990","GP_ID":"228869250"},{"MEAN_MOTION_DDOT":"0.0000000000000","TLE_LINE2":"2 47407  53.0520 200.4264 0001136  68.0809 292.0301 15.06288920120662","LAUNCH_DATE":"2021-01-20","OBJECT_ID":"2021-005BL","ELEMENT_SET_NO":"999","EPOCH":"2023-03-25T13:53:20.716800","ARG_OF_PERICENTER":"68.0809","DECAY_DATE":null,"APOAPSIS":"548.341","PERIOD":"95.599","ECCENTRICITY":"0.00011360","MEAN_MOTION_DOT":"0.00045341","OBJECT_TYPE":"PAYLOAD","TLE_LINE1":"1 47407U 21005BL  23084.57871200  .00045341  00000-0  30524-2 0  9990","INCLINATION":"53.0520","RA_OF_ASC_NODE":"200.4264","GP_ID":"228869500","REF_FRAME":"TEME","SITE":"AFETR","REV_AT_EPOCH":"12066","BSTAR":"0.00305240000000","TIME_SYSTEM":"UTC","MEAN_ELEMENT_THEORY":"SGP4","CLASSIFICATION_TYPE":"U","MEAN_MOTION":"15.06288920","FILE":"3871104","RCS_SIZE":"LARGE","PERIAPSIS":"546.767","CENTER_NAME":"EARTH","NORAD_CAT_ID":"47407","SEMIMAJOR_AXIS":"6925.689","COUNTRY_CODE":"US","OBJECT_NAME":"STARLINK-2134","MEAN_ANOMALY":"292.0301","EPHEMERIS_TYPE":"0"},{"MEAN_MOTION_DDOT":"0.0000000000000","TLE_LINE2":"2 47408  53.0529 199.9613 0001035  89.1360 270.9747 15.06321101120686","LAUNCH_DATE":"2021-01-20","OBJECT_ID":"2021-005BM","ELEMENT_SET_NO":"999","ARG_OF_PERICENTER":"89.1360","EPOCH":"2023-03-25T16:21:55.200096","DECAY_DATE":null,"APOAPSIS":"548.172","ECCENTRICITY":"0.00010350","PERIOD":"95.597","MEAN_MOTION_DOT":"0.00069664","OBJECT_TYPE":"PAYLOAD","TLE_LINE1":"1 47408U 21005BM  23084.68188889  .00069664  00000-0  46597-2 0  9998","INCLINATION":"53.0529","RA_OF_ASC_NODE":"199.9613","GP_ID":"228870252","REF_FRAME":"TEME","REV_AT_EPOCH":"12068","SITE":"AFETR","BSTAR":"0.00465970000000","TIME_SYSTEM":"UTC","MEAN_ELEMENT_THEORY":"SGP4","CLASSIFICATION_TYPE":"U","MEAN_MOTION":"15.06321101","RCS_SIZE":"LARGE","FILE":"3871104","PERIAPSIS":"546.739","CENTER_NAME":"EARTH","NORAD_CAT_ID":"47408","SEMIMAJOR_AXIS":"6925.590","COUNTRY_CODE":"US","OBJECT_NAME":"STARLINK-2135","MEAN_ANOMALY":"270.9747","EPHEMERIS_TYPE":"0"},{"DECAY_DATE":null,"EPOCH":"2023-03-25T18:05:29.743872","ARG_OF_PERICENTER":"112.6254","ELEMENT_SET_NO":"999","OBJECT_ID":"2021-009A","LAUNCH_DATE":"2021-02-04","TLE_LINE2":"2 47548  53.0534 179.6404 0001569 112.6254 247.4901 15.06353917118167","MEAN_MOTION_DDOT":"0.0000000000000","REF_FRAME":"TEME","GP_ID":"228871018","TLE_LINE1":"1 47548U 21009A   23084.75381648  .00059911  00000-0  40119-2 0  9991","RA_OF_ASC_NODE":"179.6404","INCLINATION":"53.0534","MEAN_MOTION_DOT":"0.00059911","OBJECT_TYPE":"PAYLOAD","PERIOD":"95.595","ECCENTRICITY":"0.00015690","APOAPSIS":"548.441","CENTER_NAME":"EARTH","FILE":"3871104","RCS_SIZE":"LARGE","PERIAPSIS":"546.268","MEAN_MOTION":"15.06353917","CLASSIFICATION_TYPE":"U","TIME_SYSTEM":"UTC","MEAN_ELEMENT_THEORY":"SGP4","BSTAR":"0.00401190000000","REV_AT_EPOCH":"11816","SITE":"AFETR","EPHEMERIS_TYPE":"0","OBJECT_NAME":"STARLINK-1782","MEAN_ANOMALY":"247.4901","COUNTRY_CODE":"US","SEMIMAJOR_AXIS":"6925.490","NORAD_CAT_ID":"47548"},{"REF_FRAME":"TEME","GP_ID":"228869766","RA_OF_ASC_NODE":"180.8457","INCLINATION":"53.0534","TLE_LINE1":"1 47549U 21009B   23084.48471366  .00025071  00000-0  16996-2 0  9995","OBJECT_TYPE":"PAYLOAD","MEAN_MOTION_DOT":"0.00025071","PERIOD":"95.597","ECCENTRICITY":"0.00015260","APOAPSIS":"548.512","DECAY_DATE":null,"ARG_OF_PERICENTER":"129.7873","EPOCH":"2023-03-25T11:37:59.260224","ELEMENT_SET_NO":"999","OBJECT_ID":"2021-009B","LAUNCH_DATE":"2021-02-04","TLE_LINE2":"2 47549  53.0534 180.8457 0001526 129.7873 230.3250 15.06321033118127","MEAN_MOTION_DDOT":"0.0000000000000","EPHEMERIS_TYPE":"0","MEAN_ANOMALY":"230.3250","OBJECT_NAME":"STARLINK-1806","COUNTRY_CODE":"US","NORAD_CAT_ID":"47549","SEMIMAJOR_AXIS":"6925.591","CENTER_NAME":"EARTH","PERIAPSIS":"546.399","FILE":"3871104","RCS_SIZE":"LARGE","MEAN_MOTION":"15.06321033","CLASSIFICATION_TYPE":"U","MEAN_ELEMENT_THEORY":"SGP4","TIME_SYSTEM":"UTC","BSTAR":"0.00169960000000","SITE":"AFETR","REV_AT_EPOCH":"11812"},{"NORAD_CAT_ID":"47550","SEMIMAJOR_AXIS":"6925.707","COUNTRY_CODE":"US","MEAN_ANOMALY":"275.1258","OBJECT_NAME":"STARLINK-1909","EPHEMERIS_TYPE":"0","REV_AT_EPOCH":"11827","SITE":"AFETR","BSTAR":"0.00302300000000","TIME_SYSTEM":"UTC","MEAN_ELEMENT_THEORY":"SGP4","CLASSIFICATION_TYPE":"U","MEAN_MOTION":"15.06283131","PERIAPSIS":"546.755","RCS_SIZE":"LARGE","FILE":"3871104","CENTER_NAME":"EARTH","APOAPSIS":"548.389","PERIOD":"95.600","ECCENTRICITY":"0.00011800","OBJECT_TYPE":"PAYLOAD","MEAN_MOTION_DOT":"0.00044891","INCLINATION":"53.0526","RA_OF_ASC_NODE":"170.4967","TLE_LINE1":"1 47550U 21009C   23084.56307795  .00044891  00000-0  30230-2 0  9998","GP_ID":"228870016","REF_FRAME":"TEME","MEAN_MOTION_DDOT":"0.0000000000000","TLE_LINE2":"2 47550  53.0526 170.4967 0001180  84.9865 275.1258 15.06283131118277","LAUNCH_DATE":"2021-02-04","OBJECT_ID":"2021-009C","ELEMENT_SET_NO":"999","EPOCH":"2023-03-25T13:30:49.934880","ARG_OF_PERICENTER":"84.9865","DECAY_DATE":null},{"MEAN_MOTION_DDOT":"0.0000000000000","TLE_LINE2":"2 47551  53.0536 189.9243 0001344  68.6749 291.4383 15.06376947118013","LAUNCH_DATE":"2021-02-04","OBJECT_ID":"2021-009D","ELEMENT_SET_NO":"999","ARG_OF_PERICENTER":"68.6749","EPOCH":"2023-03-25T16:33:56.274624","DECAY_DATE":null,"APOAPSIS":"548.215","ECCENTRICITY":"0.00013440","PERIOD":"95.594","OBJECT_TYPE":"PAYLOAD","MEAN_MOTION_DOT":"0.00073615","RA_OF_ASC_NODE":"189.9243","INCLINATION":"53.0536","TLE_LINE1":"1 47551U 21009D   23084.69023466  .00073615  00000-0  49127-2 0  9994","GP_ID":"228870768","REF_FRAME":"TEME","SITE":"AFETR","REV_AT_EPOCH":"11801","BSTAR":"0.00491270000000","TIME_SYSTEM":"UTC","MEAN_ELEMENT_THEORY":"SGP4","MEAN_MOTION":"15.06376947","CLASSIFICATION_TYPE":"U","PERIAPSIS":"546.353","FILE":"3871104","RCS_SIZE":"LARGE","CENTER_NAME":"EARTH","NORAD_CAT_ID":"47551","SEMIMAJOR_AXIS":"6925.419","COUNTRY_CODE":"US","MEAN_ANOMALY":"291.4383","OBJECT_NAME":"STARLINK-1938","EPHEMERIS_TYPE":"0"},{"SEMIMAJOR_AXIS":"6925.539","NORAD_CAT_ID":"47552","COUNTRY_CODE":"US","MEAN_ANOMALY":"264.4177","OBJECT_NAME":"STARLINK-1940","EPHEMERIS_TYPE":"0","REV_AT_EPOCH":"11814","SITE":"AFETR","BSTAR":"0.00354770000000","MEAN_ELEMENT_THEORY":"SGP4","TIME_SYSTEM":"UTC","CLASSIFICATION_TYPE":"U","MEAN_MOTION":"15.06337711","PERIAPSIS":"546.426","RCS_SIZE":"LARGE","FILE":"3871104","CENTER_NAME":"EARTH","APOAPSIS":"548.383","PERIOD":"95.596","ECCENTRICITY":"0.00014130","OBJECT_TYPE":"PAYLOAD","MEAN_MOTION_DOT":"0.00052870","INCLINATION":"53.0535","RA_OF_ASC_NODE":"180.2022","TLE_LINE1":"1 47552U 21009E   23084.62850202  .00052870  00000-0  35477-2 0  9997","GP_ID":"228870518","REF_FRAME":"TEME","MEAN_MOTION_DDOT":"0.0000000000000","TLE_LINE2":"2 47552  53.0535 180.2022 0001413  95.6973 264.4177 15.06337711118149","LAUNCH_DATE":"2021-02-04","OBJECT_ID":"2021-009E","ELEMENT_SET_NO":"999","ARG_OF_PERICENTER":"95.6973","EPOCH":"2023-03-25T15:05:02.574528","DECAY_DATE":null},{"ELEMENT_SET_NO":"999","OBJECT_ID":"2021-009G","DECAY_DATE":null,"ARG_OF_PERICENTER":"89.1797","EPOCH":"2023-03-25T13:37:24.422592","MEAN_MOTION_DDOT":"0.0000000000000","LAUNCH_DATE":"2021-02-04","TLE_LINE2":"2 47554  53.0538 200.4717 0001140  89.1797 270.9322 15.06274310117855","GP_ID":"228869266","RA_OF_ASC_NODE":"200.4717","INCLINATION":"53.0538","TLE_LINE1":"1 47554U 21009G   23084.56764378 -.00008908  00000-0 -58188-3 0  9990","REF_FRAME":"TEME","PERIOD":"95.600","ECCENTRICITY":"0.00011400","APOAPSIS":"548.388","MEAN_MOTION_DOT":"-0.00008908","OBJECT_TYPE":"PAYLOAD","PERIAPSIS":"546.809","RCS_SIZE":"LARGE","FILE":"3871104","CLASSIFICATION_TYPE":"U","MEAN_MOTION":"15.06274310","CENTER_NAME":"EARTH","SITE":"AFETR","REV_AT_EPOCH":"11785","MEAN_ELEMENT_THEORY":"SGP4","TIME_SYSTEM":"UTC","BSTAR":"-0.00058188000000","EPHEMERIS_TYPE":"0","MEAN_ANOMALY":"270.9322","OBJECT_NAME":"STARLINK-1953","SEMIMAJOR_AXIS":"6925.734","NORAD_CAT_ID":"47554","COUNTRY_CODE":"US"},{"OBJECT_ID":"2021-009H","ELEMENT_SET_NO":"999","EPOCH":"2023-03-25T14:37:10.261056","ARG_OF_PERICENTER":"105.1130","DECAY_DATE":null,"MEAN_MOTION_DDOT":"0.0000000000000","TLE_LINE2":"2 47555  53.0528 190.2888 0001163 105.1130 254.9988 15.06260092118005","LAUNCH_DATE":"2021-02-04","RA_OF_ASC_NODE":"190.2888","INCLINATION":"53.0528","TLE_LINE1":"1 47555U 21009H   23084.60914654  .00033116  00000-0  22401-2 0  9995","GP_ID":"228869516","REF_FRAME":"TEME","APOAPSIS":"548.448","PERIOD":"95.601","ECCENTRICITY":"0.00011630","MEAN_MOTION_DOT":"0.00033116","OBJECT_TYPE":"PAYLOAD","CLASSIFICATION_TYPE":"U","MEAN_MOTION":"15.06260092","PERIAPSIS":"546.837","FILE":"3871104","RCS_SIZE":"LARGE","CENTER_NAME":"EARTH","REV_AT_EPOCH":"11800","SITE":"AFETR","BSTAR":"0.00224010000000","TIME_SYSTEM":"UTC","MEAN_ELEMENT_THEORY":"SGP4","MEAN_ANOMALY":"254.9988","OBJECT_NAME":"STARLINK-1954","EPHEMERIS_TYPE":"0","SEMIMAJOR_AXIS":"6925.777","NORAD_CAT_ID":"47555","COUNTRY_CODE":"US"}];
